{
  "norad_id": 65474,
  "name": "STARLINK-34998",
  "history": [
    {
      "epoch": "2026-03-28T11:46:52.664448Z",
      "apogee_km": 475.7214093513776,
      "perigee_km": 474.7053316254496,
      "latitude_deg": 1.0905419209791207e-05,
      "longitude_deg": 168.1185965366648,
      "height_km": 475.8447131244242,
      "semi_major_axis_km": 6853.350370488413,
      "eccentricity": 7.413e-05,
      "inclination_deg": 53.1617,
      "raan_deg": 170.7486,
      "arg_perigee_deg": 58.1928,
      "mean_anomaly_deg": 301.9145,
      "mean_motion_rev_day": 15.30200569
    },
    {
      "epoch": "2026-03-29T22:16:03.112320Z",
      "apogee_km": 476.04572118611213,
      "perigee_km": 474.30881721772585,
      "latitude_deg": 6.4667035724309484e-06,
      "longitude_deg": 2.732861336293021,
      "height_km": 476.06163777787975,
      "semi_major_axis_km": 6853.314269201919,
      "eccentricity": 0.00012672,
      "inclination_deg": 53.1604,
      "raan_deg": 164.0727,
      "arg_perigee_deg": 89.0923,
      "mean_anomaly_deg": 271.0223,
      "mean_motion_rev_day": 15.3021266
    },
    {
      "epoch": "2026-03-30T13:56:35.288736Z",
      "apogee_km": 475.9697121141435,
      "perigee_km": 474.4375792793917,
      "latitude_deg": -2.0998541929298696e-05,
      "longitude_deg": 123.92289897801267,
      "height_km": 476.03202085879616,
      "semi_major_axis_km": 6853.340645696768,
      "eccentricity": 0.00011178,
      "inclination_deg": 53.1601,
      "raan_deg": 161.0406,
      "arg_perigee_deg": 84.7625,
      "mean_anomaly_deg": 275.3503,
      "mean_motion_rev_day": 15.30203826
    },
    {
      "epoch": "2026-03-31T13:27:23.100192Z",
      "apogee_km": 475.732780784856,
      "perigee_km": 474.7678238526896,
      "latitude_deg": -1.9051988316322005e-05,
      "longitude_deg": 125.70793116342377,
      "height_km": 475.7009050701651,
      "semi_major_axis_km": 6853.3873023187725,
      "eccentricity": 7.04e-05,
      "inclination_deg": 53.1594,
      "raan_deg": 156.4905,
      "arg_perigee_deg": 21.5569,
      "mean_anomaly_deg": 338.5461,
      "mean_motion_rev_day": 15.301882
    },
    {
      "epoch": "2026-04-01T20:48:27.148896Z",
      "apogee_km": 476.2824335873511,
      "perigee_km": 474.02770049729406,
      "latitude_deg": -1.944679390141997e-06,
      "longitude_deg": 8.08483105696427,
      "height_km": 475.7460233625132,
      "semi_major_axis_km": 6853.292067042323,
      "eccentricity": 0.0001645,
      "inclination_deg": 53.1579,
      "raan_deg": 150.4218,
      "arg_perigee_deg": 74.2258,
      "mean_anomaly_deg": 285.8924,
      "mean_motion_rev_day": 15.30220096
    }
  ]
}